start=new Date('2023-05-12T00:00:00.000Z').valueOf();
sats=[{"CLASSIFICATION_TYPE":"U","MEAN_MOTION_DDOT":"0.0000000000000","PERIAPSIS":"546.606","SITE":"AFETR","LAUNCH_DATE":"2021-02-04","PERIOD":"95.591","MEAN_ELEMENT_THEORY":"SGP4","ELEMENT_SET_NO":"999","NORAD_CAT_ID":"47574","EPOCH":"2023-05-11T21:43:32.551968","MEAN_MOTION_DOT":"0.00028928","BSTAR":"0.00195240000000","REF_FRAME":"TEME","APOAPSIS":"547.751","TLE_LINE2":"2 47574  53.0547 357.9689 0000827 125.3090 234.7977 15.06411385124849","MEAN_MOTION":"15.06411385","FILE":"3905576","GP_ID":"231635033","RCS_SIZE":"LARGE","MEAN_ANOMALY":"234.7977","DECAY_DATE":null,"OBJECT_TYPE":"PAYLOAD","SEMIMAJOR_AXIS":"6925.314","RA_OF_ASC_NODE":"357.9689","EPHEMERIS_TYPE":"0","INCLINATION":"53.0547","COUNTRY_CODE":"US","ECCENTRICITY":"0.00008270","OBJECT_ID":"2021-009AC","REV_AT_EPOCH":"12484","ARG_OF_PERICENTER":"125.3090","OBJECT_NAME":"STARLINK-1976","TLE_LINE1":"1 47574U 21009AC  23131.90523787  .00028928  00000-0  19524-2 0  9992","CENTER_NAME":"EARTH","TIME_SYSTEM":"UTC"},{"MEAN_MOTION":"15.06404383","TLE_LINE2":"2 47575  53.0545 358.0183 0001924  77.3889 282.7315 15.06404383125446","REF_FRAME":"TEME","APOAPSIS":"548.533","MEAN_MOTION_DOT":"0.00029395","BSTAR":"0.00198380000000","EPOCH":"2023-05-11T21:27:37.228896","NORAD_CAT_ID":"47575","ELEMENT_SET_NO":"999","MEAN_ELEMENT_THEORY":"SGP4","LAUNCH_DATE":"2021-02-04","PERIOD":"95.592","MEAN_MOTION_DDOT":"0.0000000000000","SITE":"AFETR","PERIAPSIS":"545.868","CLASSIFICATION_TYPE":"U","TIME_SYSTEM":"UTC","CENTER_NAME":"EARTH","TLE_LINE1":"1 47575U 21009AD  23131.89418089  .00029395  00000-0  19838-2 0  9996","OBJECT_NAME":"STARLINK-1977","ARG_OF_PERICENTER":"77.3889","REV_AT_EPOCH":"12544","OBJECT_ID":"2021-009AD","ECCENTRICITY":"0.00019240","INCLINATION":"53.0545","COUNTRY_CODE":"US","OBJECT_TYPE":"PAYLOAD","EPHEMERIS_TYPE":"0","RA_OF_ASC_NODE":"358.0183","SEMIMAJOR_AXIS":"6925.335","RCS_SIZE":"LARGE","DECAY_DATE":null,"MEAN_ANOMALY":"282.7315","FILE":"3905441","GP_ID":"231611660"},{"GP_ID":"231636535","FILE":"3905576","MEAN_ANOMALY":"265.8632","DECAY_DATE":null,"RCS_SIZE":"LARGE","RA_OF_ASC_NODE":"318.4629","SEMIMAJOR_AXIS":"6925.353","EPHEMERIS_TYPE":"0","OBJECT_TYPE":"PAYLOAD","COUNTRY_CODE":"US","INCLINATION":"53.0541","OBJECT_ID":"2021-009AE","ECCENTRICITY":"0.00013350","REV_AT_EPOCH":"12539","ARG_OF_PERICENTER":"94.2510","OBJECT_NAME":"STARLINK-1978","TLE_LINE1":"1 47576U 21009AE  23131.79465692  .00026993  00000-0  18242-2 0  9997","CENTER_NAME":"EARTH","TIME_SYSTEM":"UTC","CLASSIFICATION_TYPE":"U","PERIAPSIS":"546.294","SITE":"AFETR","MEAN_MOTION_DDOT":"0.0000000000000","LAUNCH_DATE":"2021-02-04","PERIOD":"95.592","MEAN_ELEMENT_THEORY":"SGP4","ELEMENT_SET_NO":"999","NORAD_CAT_ID":"47576","EPOCH":"2023-05-11T19:04:18.357888","BSTAR":"0.00182420000000","MEAN_MOTION_DOT":"0.00026993","APOAPSIS":"548.143","REF_FRAME":"TEME","TLE_LINE2":"2 47576  53.0541 318.4629 0001335  94.2510 265.8632 15.06398438125394","MEAN_MOTION":"15.06398438"},{"INCLINATION":"53.0546","COUNTRY_CODE":"US","OBJECT_TYPE":"PAYLOAD","RA_OF_ASC_NODE":"333.2792","EPHEMERIS_TYPE":"0","SEMIMAJOR_AXIS":"6925.414","RCS_SIZE":"LARGE","DECAY_DATE":null,"MEAN_ANOMALY":"307.7976","FILE":"3905576","GP_ID":"231635283","REV_AT_EPOCH":"12519","OBJECT_ID":"2021-009AF","ECCENTRICITY":"0.00010720","TLE_LINE1":"1 47577U 21009AF  23131.83566342  .00023626  00000-0  16006-2 0  9993","OBJECT_NAME":"STARLINK-1979","ARG_OF_PERICENTER":"52.3110","TIME_SYSTEM":"UTC","CENTER_NAME":"EARTH","MEAN_ELEMENT_THEORY":"SGP4","LAUNCH_DATE":"2021-02-04","PERIOD":"95.594","MEAN_MOTION_DDOT":"0.0000000000000","PERIAPSIS":"546.537","SITE":"AFETR","CLASSIFICATION_TYPE":"U","NORAD_CAT_ID":"47577","ELEMENT_SET_NO":"999","MEAN_MOTION_DOT":"0.00023626","BSTAR":"0.00160060000000","EPOCH":"2023-05-11T20:03:21.319488","TLE_LINE2":"2 47577  53.0546 333.2792 0001072  52.3110 307.7976 15.06378569125193","MEAN_MOTION":"15.06378569","APOAPSIS":"548.022","REF_FRAME":"TEME"},{"ARG_OF_PERICENTER":"82.0787","OBJECT_NAME":"STARLINK-1980","TLE_LINE1":"1 47578U 21009AG  23131.82967527  .00022386  00000-0  15170-2 0  9996","CENTER_NAME":"EARTH","TIME_SYSTEM":"UTC","FILE":"3905576","GP_ID":"231635533","RCS_SIZE":"LARGE","DECAY_DATE":null,"MEAN_ANOMALY":"278.0370","OBJECT_TYPE":"PAYLOAD","RA_OF_ASC_NODE":"338.3057","SEMIMAJOR_AXIS":"6925.350","EPHEMERIS_TYPE":"0","INCLINATION":"53.0531","COUNTRY_CODE":"US","ECCENTRICITY":"0.00014850","OBJECT_ID":"2021-009AG","REV_AT_EPOCH":"12511","EPOCH":"2023-05-11T19:54:43.943328","MEAN_MOTION_DOT":"0.00022386","BSTAR":"0.00151700000000","APOAPSIS":"548.243","REF_FRAME":"TEME","MEAN_MOTION":"15.06399524","TLE_LINE2":"2 47578  53.0531 338.3057 0001485  82.0787 278.0370 15.06399524125110","CLASSIFICATION_TYPE":"U","MEAN_MOTION_DDOT":"0.0000000000000","PERIAPSIS":"546.187","SITE":"AFETR","LAUNCH_DATE":"2021-02-04","PERIOD":"95.592","MEAN_ELEMENT_THEORY":"SGP4","ELEMENT_SET_NO":"999","NORAD_CAT_ID":"47578"},{"CLASSIFICATION_TYPE":"U","SITE":"AFETR","PERIAPSIS":"546.256","MEAN_MOTION_DDOT":"0.0000000000000","LAUNCH_DATE":"2021-02-04","PERIOD":"95.592","MEAN_ELEMENT_THEORY":"SGP4","ELEMENT_SET_NO":"999","NORAD_CAT_ID":"47579","EPOCH":"2023-05-11T21:05:03.443712","BSTAR":"0.00189320000000","MEAN_MOTION_DOT":"0.00028035","REF_FRAME":"TEME","APOAPSIS":"548.129","MEAN_MOTION":"15.06406838","TLE_LINE2":"2 47579  53.0541 328.0871 0001352  82.3752 277.7391 15.06406838125262","GP_ID":"231636285","FILE":"3905576","MEAN_ANOMALY":"277.7391","DECAY_DATE":null,"RCS_SIZE":"LARGE","RA_OF_ASC_NODE":"328.0871","SEMIMAJOR_AXIS":"6925.328","EPHEMERIS_TYPE":"0","OBJECT_TYPE":"PAYLOAD","COUNTRY_CODE":"US","INCLINATION":"53.0541","OBJECT_ID":"2021-009AH","ECCENTRICITY":"0.00013520","REV_AT_EPOCH":"12526","ARG_OF_PERICENTER":"82.3752","OBJECT_NAME":"STARLINK-1981","TLE_LINE1":"1 47579U 21009AH  23131.87851208  .00028035  00000-0  18932-2 0  9996","CENTER_NAME":"EARTH","TIME_SYSTEM":"UTC"},{"TLE_LINE1":"1 47580U 21009AJ  23131.83336303  .00025220  00000-0  17058-2 0  9999","OBJECT_NAME":"STARLINK-1982","ARG_OF_PERICENTER":"81.7387","TIME_SYSTEM":"UTC","CENTER_NAME":"EARTH","COUNTRY_CODE":"US","INCLINATION":"53.0527","SEMIMAJOR_AXIS":"6925.339","EPHEMERIS_TYPE":"0","RA_OF_ASC_NODE":"338.2931","OBJECT_TYPE":"PAYLOAD","DECAY_DATE":null,"MEAN_ANOMALY":"278.3793","RCS_SIZE":"LARGE","GP_ID":"231636036","FILE":"3905576","REV_AT_EPOCH":"12511","ECCENTRICITY":"0.00016900","OBJECT_ID":"2021-009AJ","BSTAR":"0.00170580000000","MEAN_MOTION_DOT":"0.00025220","EPOCH":"2023-05-11T20:00:02.565792","MEAN_MOTION":"15.06403096","TLE_LINE2":"2 47580  53.0527 338.2931 0001690  81.7387 278.3793 15.06403096125110","REF_FRAME":"TEME","APOAPSIS":"548.374","MEAN_ELEMENT_THEORY":"SGP4","LAUNCH_DATE":"2021-02-04","PERIOD":"95.592","SITE":"AFETR","PERIAPSIS":"546.034","MEAN_MOTION_DDOT":"0.0000000000000","CLASSIFICATION_TYPE":"U","NORAD_CAT_ID":"47580","ELEMENT_SET_NO":"999"},{"NORAD_CAT_ID":"47581","ELEMENT_SET_NO":"999","MEAN_ELEMENT_THEORY":"SGP4","PERIOD":"95.593","LAUNCH_DATE":"2021-02-04","PERIAPSIS":"546.645","SITE":"AFETR","MEAN_MOTION_DDOT":"0.0000000000000","CLASSIFICATION_TYPE":"U","TLE_LINE2":"2 47581  53.0541 318.3791 0000868 104.6933 255.4153 15.06389241125399","MEAN_MOTION":"15.06389241","REF_FRAME":"TEME","APOAPSIS":"547.848","BSTAR":"-0.00019034000000","MEAN_MOTION_DOT":"-0.00003114","EPOCH":"2023-05-11T19:30:50.461920","REV_AT_EPOCH":"12539","ECCENTRICITY":"0.00008680","OBJECT_ID":"2021-009AK","COUNTRY_CODE":"US","INCLINATION":"53.0541","RA_OF_ASC_NODE":"318.3791","EPHEMERIS_TYPE":"0","SEMIMAJOR_AXIS":"6925.382","OBJECT_TYPE":"PAYLOAD","DECAY_DATE":null,"MEAN_ANOMALY":"255.4153","RCS_SIZE":"LARGE","GP_ID":"231634784","FILE":"3905576","TIME_SYSTEM":"UTC","CENTER_NAME":"EARTH","TLE_LINE1":"1 47581U 21009AK  23131.81308405 -.00003114  00000-0 -19034-3 0  9997","OBJECT_NAME":"STARLINK-1984","ARG_OF_PERICENTER":"104.6933"},{"NORAD_CAT_ID":"47582","ELEMENT_SET_NO":"999","PERIOD":"95.592","LAUNCH_DATE":"2021-02-04","MEAN_ELEMENT_THEORY":"SGP4","CLASSIFICATION_TYPE":"U","PERIAPSIS":"546.186","SITE":"AFETR","MEAN_MOTION_DDOT":"0.0000000000000","TLE_LINE2":"2 47582  53.0551 338.1421 0001491 114.7362 245.3782 15.06398246125124","MEAN_MOTION":"15.06398246","APOAPSIS":"548.252","REF_FRAME":"TEME","BSTAR":"0.00179520000000","MEAN_MOTION_DOT":"0.00026558","EPOCH":"2023-05-11T20:47:48.541920","ECCENTRICITY":"0.00014910","OBJECT_ID":"2021-009AL","REV_AT_EPOCH":"12512","EPHEMERIS_TYPE":"0","RA_OF_ASC_NODE":"338.1421","SEMIMAJOR_AXIS":"6925.354","OBJECT_TYPE":"PAYLOAD","COUNTRY_CODE":"US","INCLINATION":"53.0551","GP_ID":"231635034","FILE":"3905576","DECAY_DATE":null,"MEAN_ANOMALY":"245.3782","RCS_SIZE":"LARGE","TIME_SYSTEM":"UTC","CENTER_NAME":"EARTH","TLE_LINE1":"1 47582U 21009AL  23131.86653405  .00026558  00000-0  17952-2 0  9997","ARG_OF_PERICENTER":"114.7362","OBJECT_NAME":"STARLINK-1986"},{"ECCENTRICITY":"0.00016320","OBJECT_ID":"2021-009AM","REV_AT_EPOCH":"12512","OBJECT_TYPE":"PAYLOAD","SEMIMAJOR_AXIS":"6925.353","EPHEMERIS_TYPE":"0","RA_OF_ASC_NODE":"338.2460","INCLINATION":"53.0533","COUNTRY_CODE":"US","FILE":"3905576","GP_ID":"231635786","RCS_SIZE":"LARGE","DECAY_DATE":null,"MEAN_ANOMALY":"313.3437","TIME_SYSTEM":"UTC","CENTER_NAME":"EARTH","TLE_LINE1":"1 47583U 21009AM  23131.84442419 -.00000170  00000-0  74633-5 0  9992","ARG_OF_PERICENTER":"46.7688","OBJECT_NAME":"STARLINK-1987","NORAD_CAT_ID":"47583","ELEMENT_SET_NO":"999","LAUNCH_DATE":"2021-02-04","PERIOD":"95.592","MEAN_ELEMENT_THEORY":"SGP4","CLASSIFICATION_TYPE":"U","MEAN_MOTION_DDOT":"0.0000000000000","SITE":"AFETR","PERIAPSIS":"546.088","TLE_LINE2":"2 47583  53.0533 338.2460 0001632  46.7688 313.3437 15.06398528125127","MEAN_MOTION":"15.06398528","REF_FRAME":"TEME","APOAPSIS":"548.348","MEAN_MOTION_DOT":"-0.00000170","BSTAR":"0.00000746330000","EPOCH":"2023-05-11T20:15:58.250016"}];
